NORAD_CAT_ID,OBJECT_NAME,OBJECT_TYPE,EPOCH,MEAN_MOTION,ECCENTRICITY,INCLINATION,RA_OF_ASC_NODE,ARG_OF_PERICENTER,MEAN_ANOMALY,BSTAR,MEAN_MOTION_DOT,MEAN_MOTION_DDOT,TLE_LINE0,TLE_LINE1,TLE_LINE2,SEMIMAJOR_AXIS,PERIOD,APOGEE,PERIGEE,DECAYED
55951.0,STARLINK-5908,PAYLOAD,2023-10-23 11:15:33,14.98334337,0.0002386,69.9994,313.3646,256.3945,103.6949,3.3503e-05,3.07e-06,0.0,0 STARLINK-5908,1 55951U 23037AP  23296.46913405  .00000307  00000-0  33503-4 0  9992,2 55951  69.9994 313.3646 0002386 256.3945 103.6949 14.98334337 33937,6950.179,96.107,573.703,570.386,0.0
55951.0,STARLINK-5908,PAYLOAD,2023-10-24 04:53:01,14.98339402,0.0002655,69.999,311.5133,263.0082,97.0775,-0.00010219,-1.312e-05,0.0,0 STARLINK-5908,1 55951U 23037AP  23297.20349015 -.00001312  00000-0 -10219-3 0  9992,2 55951  69.9990 311.5133 0002655 263.0082  97.0775 14.98339402 34381,6950.164,96.106,573.874,570.184,0.0
55951.0,STARLINK-5908,PAYLOAD,2023-10-24 11:17:34,14.98318987,0.0002284,70.0002,310.8397,267.4066,92.6832,0.0001948,2.231e-05,0.0,0 STARLINK-5908,1 55951U 23037AP  23297.47053539  .00002231  00000-0  19480-3 0  9992,2 55951  70.0002 310.8397 0002284 267.4066  92.6832 14.98318987 34425,6950.227,96.108,573.679,570.505,0.0
55951.0,STARLINK-5908,PAYLOAD,2023-10-25 09:43:26,14.98332687,0.0002244,70.0001,308.4843,258.1959,101.8949,3.2296e-05,2.92e-06,0.0,0 STARLINK-5908,1 55951U 23037AP  23298.40516521  .00000292  00000-0  32296-4 0  9997,2 55951  70.0001 308.4843 0002244 258.1959 101.8949 14.98332687 34567,6950.185,96.107,573.609,570.49,0.0
55951.0,STARLINK-5908,PAYLOAD,2023-10-26 09:45:27,14.98331225,0.0002652,69.9991,305.9581,268.8768,91.2088,3.3494e-06,-5.3e-07,0.0,0 STARLINK-5908,1 55951U 23037AP  23299.40656469 -.00000053  00000-0  33494-5 0  9992,2 55951  69.9991 305.9581 0002652 268.8768  91.2088 14.98331225 34712,6950.189,96.107,573.897,570.211,0.0
55951.0,STARLINK-5908,PAYLOAD,2023-10-27 09:47:27,14.98334317,0.0002804,69.9988,303.4332,270.6342,89.4495,2.4819e-06,-6.3e-07,0.0,0 STARLINK-5908,1 55951U 23037AP  23300.40796169 -.00000063  00000-0  24819-5 0  9999,2 55951  69.9988 303.4332 0002804 270.6342  89.4495 14.98334317 34865,6950.18,96.107,573.993,570.096,0.0
55951.0,STARLINK-5908,PAYLOAD,2023-10-27 17:48:08,14.98328848,0.0002838,69.9998,302.5911,271.3739,88.7095,-2.7246e-05,-4.18e-06,0.0,0 STARLINK-5908,1 55951U 23037AP  23300.74176526 -.00000418  00000-0 -27246-4 0  9996,2 55951  69.9998 302.5911 0002838 271.3739  88.7095 14.98328848 34572,6950.196,96.107,574.034,570.089,0.0
55951.0,STARLINK-5908,PAYLOAD,2023-10-28 09:49:29,14.98328669,0.0002991,69.9987,300.9081,271.3059,88.7758,1.1953e-05,5e-07,0.0,0 STARLINK-5908,1 55951U 23037AP  23301.40936514  .00000050  00000-0  11953-4 0  9999,2 55951  69.9987 300.9081 0002991 271.3059  88.7758 14.98328669 34673,6950.197,96.107,574.141,569.983,0.0
55951.0,STARLINK-5908,PAYLOAD,2023-10-28 17:50:09,14.98329941,0.0002848,69.9987,300.0661,266.9336,93.1497,-6.6331e-06,-1.72e-06,0.0,0 STARLINK-5908,1 55951U 23037AP  23301.74316450 -.00000172  00000-0 -66331-5 0  9995,2 55951  69.9987 300.0661 0002848 266.9336  93.1497 14.98329941 35065,6950.193,96.107,574.037,570.079,0.0
55951.0,STARLINK-5908,PAYLOAD,2023-10-29 09:51:29,14.9833829,0.0003107,69.9987,298.3828,275.7395,84.341,2.1155e-05,1.59e-06,0.0,0 STARLINK-5908,1 55951U 23037AP  23302.41075814  .00000159  00000-0  21155-4 0  9993,2 55951  69.9987 298.3828 0003107 275.7395  84.3410 14.98338290 34828,6950.167,96.106,574.192,569.873,0.0
55951.0,STARLINK-5908,PAYLOAD,2023-10-30 05:05:06,14.98336097,0.0002267,69.9997,296.3628,273.5831,86.5069,-0.00014088,-1.774e-05,0.0,0 STARLINK-5908,1 55951U 23037AP  23303.21188474 -.00001774  00000-0 -14088-3 0  9991,2 55951  69.9997 296.3628 0002267 273.5831  86.5069 14.98336097 35280,6950.174,96.107,573.615,570.463,0.0
55951.0,STARLINK-5908,PAYLOAD,2023-10-30 09:53:31,14.98319151,0.0002523,69.9996,295.8586,269.5974,90.4896,0.00011974,1.336e-05,0.0,0 STARLINK-5908,1 55951U 23037AP  23303.41216915  .00001336  00000-0  11974-3 0  9998,2 55951  69.9996 295.8586 0002523 269.5974  90.4896 14.98319151 35312,6950.226,96.108,573.845,570.338,0.0
55951.0,STARLINK-5908,PAYLOAD,2023-10-30 16:18:03,14.98338057,0.000259,69.9996,295.185,271.6435,88.4427,-0.00018224,-2.267e-05,0.0,0 STARLINK-5908,1 55951U 23037AP  23303.67920426 -.00002267  00000-0 -18224-3 0  9996,2 55951  69.9996 295.1850 0002590 271.6435  88.4427 14.98338057 35356,6950.168,96.106,573.833,570.233,0.0
55951.0,STARLINK-5908,PAYLOAD,2023-10-31 09:55:31,14.98333232,0.0002699,69.999,293.3331,268.2092,91.8758,1.7178e-05,1.12e-06,0.0,0 STARLINK-5908,1 55951U 23037AP  23304.41356190  .00000112  00000-0  17178-4 0  9993,2 55951  69.9990 293.3331 0002699 268.2092  91.8758 14.98333232 35125,6950.183,96.107,573.924,570.172,0.0
55951.0,STARLINK-5908,PAYLOAD,2023-10-31 16:20:04,14.98327562,0.0002159,70.0006,292.6601,269.2875,90.8037,3.1469e-05,2.83e-06,0.0,0 STARLINK-5908,1 55951U 23037AP  23304.68060649  .00000283  00000-0  31469-4 0  9991,2 55951  70.0006 292.6601 0002159 269.2875  90.8037 14.98327562 35509,6950.2,96.107,573.566,570.565,0.0
55951.0,STARLINK-5908,PAYLOAD,2023-11-01 09:57:32,14.98328779,0.0002657,69.9992,290.8076,262.9128,97.1729,5.6922e-05,5.86e-06,0.0,0 STARLINK-5908,1 55951U 23037AP  23305.41496310  .00000586  00000-0  56922-4 0  9998,2 55951  69.9992 290.8076 0002657 262.9128  97.1729 14.98328779 35273,6950.197,96.107,573.908,570.215,0.0
55951.0,STARLINK-5908,PAYLOAD,2023-11-01 16:22:05,14.98325133,0.0002492,70.0002,290.1337,276.8554,83.2321,-1.7765e-05,-3.05e-06,0.0,0 STARLINK-5908,1 55951U 23037AP  23305.68200909 -.00000305  00000-0 -17765-4 0  9997,2 55951  70.0002 290.1337 0002492 276.8554  83.2321 14.98325133 35652,6950.208,96.107,573.805,570.341,0.0
55951.0,STARLINK-5908,PAYLOAD,2023-11-02 08:23:26,14.98328506,0.0002852,69.9992,288.4521,267.7384,92.3448,-1.5561e-05,-2.79e-06,0.0,0 STARLINK-5908,1 55951U 23037AP  23306.34960652 -.00000279  00000-0 -15561-4 0  9991,2 55951  69.9992 288.4521 0002852 267.7384  92.3448 14.98328506 35414,6950.198,96.107,574.045,570.08,0.0
55951.0,STARLINK-5908,PAYLOAD,2023-11-02 16:24:06,14.98318542,0.0002926,69.9988,287.6095,270.5984,89.484,0.00019437,2.226e-05,0.0,0 STARLINK-5908,1 55951U 23037AP  23306.68340864  .00002226  00000-0  19437-3 0  9992,2 55951  69.9988 287.6095 0002926 270.5984  89.4840 14.98318542 35801,6950.228,96.108,574.127,570.06,0.0
55951.0,STARLINK-5908,PAYLOAD,2023-11-03 05:13:10,14.98334493,0.0002899,69.9987,286.2624,267.4265,92.6562,5.7539e-05,5.94e-06,0.0,0 STARLINK-5908,1 55951U 23037AP  23307.21748024  .00000594  00000-0  57539-4 0  9994,2 55951  69.9987 286.2624 0002899 267.4265  92.6562 14.98334493 35887,6950.179,96.107,574.059,570.029,0.0
55951.0,STARLINK-5908,PAYLOAD,2023-11-03 08:25:26,14.98331568,0.0002729,69.9992,285.926,266.1213,93.9634,0.00012905,1.447e-05,0.0,0 STARLINK-5908,1 55951U 23037AP  23307.35100009  .00001447  00000-0  12905-3 0  9999,2 55951  69.9992 285.9260 0002729 266.1213  93.9634 14.98331568 35565,6950.188,96.107,573.95,570.156,0.0
55951.0,STARLINK-5908,PAYLOAD,2023-11-03 16:26:06,14.98330978,0.0002623,70.0003,285.084,272.5643,87.5215,6.5353e-05,6.87e-06,0.0,0 STARLINK-5908,1 55951U 23037AP  23307.68480237  .00000687  00000-0  65353-4 0  9990,2 55951  70.0003 285.0840 0002623 272.5643  87.5215 14.98330978 35611,6950.19,96.107,573.878,570.232,0.0
55951.0,STARLINK-5908,PAYLOAD,2023-11-04 05:15:11,14.98330585,0.0002706,69.9995,283.7376,269.0951,90.9898,5.2936e-05,5.39e-06,0.0,0 STARLINK-5908,1 55951U 23037AP  23308.21888267  .00000539  00000-0  52936-4 0  9994,2 55951  69.9995 283.7376 0002706 269.0951  90.9898 14.98330585 36038,6950.191,96.107,573.937,570.175,0.0
55951.0,STARLINK-5908,PAYLOAD,2023-11-04 08:27:27,14.98326411,0.0002783,69.9996,283.4012,270.6163,89.4677,7.7781e-05,8.35e-06,0.0,0 STARLINK-5908,1 55951U 23037AP  23308.35240481  .00000835  00000-0  77781-4 0  9993,2 55951  69.9996 283.4012 0002783 270.6163  89.4677 14.98326411 35716,6950.204,96.107,574.003,570.135,0.0
55951.0,STARLINK-5908,PAYLOAD,2023-11-04 22:52:40,14.98332759,0.0002892,69.9993,281.8866,271.5199,88.5629,3.1448e-05,2.82e-06,0.0,0 STARLINK-5908,1 55951U 23037AP  23308.95324083  .00000282  00000-0  31448-4 0  9996,2 55951  69.9993 281.8866 0002892 271.5199  88.5629 14.98332759 35801,6950.184,96.107,574.059,570.039,0.0
55951.0,STARLINK-5908,PAYLOAD,2023-11-05 05:17:11,14.98347139,0.0002696,69.9996,281.2128,266.0503,94.0348,0.00014973,1.695e-05,0.0,0 STARLINK-5908,1 55951U 23037AP  23309.22026744  .00001695  00000-0  14973-3 0  9992,2 55951  69.9996 281.2128 0002696 266.0503  94.0348 14.98347139 36189,6950.14,96.106,573.879,570.131,0.0
55951.0,STARLINK-5908,PAYLOAD,2023-11-05 08:29:27,14.98346069,0.000289,69.9996,280.8766,269.3283,90.7545,0.00010281,1.134e-05,0.0,0 STARLINK-5908,1 55951U 23037AP  23309.35378804  .00001134  00000-0  10281-3 0  9999,2 55951  69.9996 280.8766 0002890 269.3283  90.7545 14.98346069 35866,6950.143,96.106,574.017,570.0,0.0
55951.0,STARLINK-5908,PAYLOAD,2023-11-05 14:54:00,14.98333889,0.0002981,69.9998,280.2027,274.1783,85.9035,-2.1716e-05,-3.52e-06,0.0,0 STARLINK-5908,1 55951U 23037AP  23309.62083719 -.00000352  00000-0 -21716-4 0  9996,2 55951  69.9998 280.2027 0002981 274.1783  85.9035 14.98333889 36241,6950.181,96.107,574.118,569.974,0.0
55951.0,STARLINK-5908,PAYLOAD,2023-11-05 22:54:40,14.98331812,0.000265,69.9998,279.3612,277.116,82.9698,1.7999e-05,1.22e-06,0.0,0 STARLINK-5908,1 55951U 23037AP  23309.95463841  .00000122  00000-0  17999-4 0  9991,2 55951  69.9998 279.3612 0002650 277.1160  82.9698 14.98331812 35958,6950.187,96.107,573.894,570.21,0.0
55951.0,STARLINK-5908,PAYLOAD,2023-11-06 08:31:28,14.98333567,0.0002444,70.0003,278.3535,261.4988,98.5894,0.00025757,2.982e-05,0.0,0 STARLINK-5908,1 55951U 23037AP  23310.35518917  .00002982  00000-0  25757-3 0  9998,2 55951  70.0003 278.3535 0002444 261.4988  98.5894 14.98333567 36351,6950.182,96.107,573.745,570.348,0.0
